NORAD_CAT_ID,OBJECT_NAME,OBJECT_TYPE,EPOCH,MEAN_MOTION,ECCENTRICITY,INCLINATION,RA_OF_ASC_NODE,ARG_OF_PERICENTER,MEAN_ANOMALY,BSTAR,MEAN_MOTION_DOT,MEAN_MOTION_DDOT,TLE_LINE0,TLE_LINE1,TLE_LINE2,SEMIMAJOR_AXIS,PERIOD,APOGEE,PERIGEE,DECAYED
52489.0,STARLINK-3923,PAYLOAD,2024-07-10 11:08:40,15.08838322,0.0001148,53.2165,265.0619,112.581,247.5304,-3.6078e-05,-8.62e-06,0.0,0 STARLINK-3923,1 52489U 22049AQ  24192.46435487 -.00000862  00000-0 -36078-4 0  9990,2 52489  53.2165 265.0619 0001148 112.5810 247.5304 15.08838322120584,6917.886,95.438,540.545,538.956,0.0
52489.0,STARLINK-3923,PAYLOAD,2024-07-11 10:59:26,15.08854618,0.0001391,53.2172,260.6046,113.9371,246.1767,-3.8386e-05,-8.99e-06,0.0,0 STARLINK-3923,1 52489U 22049AQ  24193.45794543 -.00000899  00000-0 -38386-4 0  9995,2 52489  53.2172 260.6046 0001391 113.9371 246.1767 15.08854618120735,6917.836,95.437,540.663,538.738,0.0
52489.0,STARLINK-3923,PAYLOAD,2024-07-12 10:50:13,15.08844464,0.00013,53.217,256.1448,94.608,265.5061,0.0001289,1.764e-05,0.0,0 STARLINK-3923,1 52489U 22049AQ  24194.45154744  .00001764  00000-0  12890-3 0  9990,2 52489  53.2170 256.1448 0001300  94.6080 265.5061 15.08844464121046,6917.867,95.437,540.631,538.832,0.0
52489.0,STARLINK-3923,PAYLOAD,2024-07-13 10:41:00,15.08852354,0.0001397,53.2171,251.6879,87.9872,272.128,-0.00017308,-3.042e-05,0.0,0 STARLINK-3923,1 52489U 22049AQ  24195.44515013 -.00003042  00000-0 -17308-3 0  9992,2 52489  53.2171 251.6879 0001397  87.9872 272.1280 15.08852354121038,6917.843,95.437,540.674,538.741,0.0
52489.0,STARLINK-3923,PAYLOAD,2024-07-13 20:13:20,15.088382,0.000128,53.2165,249.9035,90.391,269.7229,-4.1177e-05,-9.43e-06,0.0,0 STARLINK-3923,1 52489U 22049AQ  24195.84259653 -.00000943  00000-0 -41177-4 0  9990,2 52489  53.2165 249.9035 0001280  90.3910 269.7229 15.08838200121250,6917.886,95.438,540.636,538.865,0.0
52489.0,STARLINK-3923,PAYLOAD,2024-07-14 10:31:48,15.08841209,0.0001252,53.2164,247.225,85.0415,275.072,-3.5854e-06,-3.45e-06,0.0,0 STARLINK-3923,1 52489U 22049AQ  24196.43875479 -.00000345  00000-0 -35854-5 0  9998,2 52489  53.2164 247.2250 0001252  85.0415 275.0720 15.08841209121180,6917.877,95.437,540.608,538.876,0.0
52489.0,STARLINK-3923,PAYLOAD,2024-07-14 20:04:07,15.08840325,0.0001284,53.2164,245.4397,83.9744,276.1395,3.2634e-06,-2.36e-06,0.0,0 STARLINK-3923,1 52489U 22049AQ  24196.83619517 -.00000236  00000-0  32634-5 0  9992,2 52489  53.2164 245.4397 0001284  83.9744 276.1395 15.08840325121244,6917.879,95.438,540.633,538.856,0.0
52489.0,STARLINK-3923,PAYLOAD,2024-07-15 04:01:03,15.08830256,0.0001364,53.2166,243.9531,91.4436,268.6712,0.00010678,1.411e-05,0.0,0 STARLINK-3923,1 52489U 22049AQ  24197.16739967  .00001411  00000-0  10678-3 0  9998,2 52489  53.2166 243.9531 0001364  91.4436 268.6712 15.08830256121454,6917.91,95.438,540.719,538.832,0.0
52489.0,STARLINK-3923,PAYLOAD,2024-07-15 10:22:35,15.08838715,0.000132,53.2164,242.7648,92.6835,267.4308,8.1318e-05,1.006e-05,0.0,0 STARLINK-3923,1 52489U 22049AQ  24197.43235654  .00001006  00000-0  81318-4 0  9992,2 52489  53.2164 242.7648 0001320  92.6835 267.4308 15.08838715121339,6917.884,95.438,540.662,538.836,0.0
52489.0,STARLINK-3923,PAYLOAD,2024-07-15 19:54:54,15.08839339,0.000132,53.2164,240.9805,91.6817,268.4327,6.2175e-05,7.02e-06,0.0,0 STARLINK-3923,1 52489U 22049AQ  24197.82979677  .00000702  00000-0  62175-4 0  9997,2 52489  53.2164 240.9805 0001320  91.6817 268.4327 15.08839339121552,6917.882,95.438,540.661,538.834,0.0
52489.0,STARLINK-3923,PAYLOAD,2024-07-16 11:48:45,15.08845521,0.0001378,53.2164,238.0069,95.4363,264.6786,0.00011504,1.544e-05,0.0,0 STARLINK-3923,1 52489U 22049AQ  24198.49219271  .00001544  00000-0  11504-3 0  9992,2 52489  53.2164 238.0069 0001378  95.4363 264.6786 15.08845521121493,6917.864,95.437,540.682,538.775,0.0
52489.0,STARLINK-3923,PAYLOAD,2024-07-16 22:56:27,15.08841681,0.0001353,53.216,235.9246,100.3823,259.7322,8.058e-05,9.95e-06,0.0,0 STARLINK-3923,1 52489U 22049AQ  24198.95587523  .00000995  00000-0  80580-4 0  9991,2 52489  53.2160 235.9246 0001353 100.3823 259.7322 15.08841681121722,6917.875,95.437,540.676,538.804,0.0
52489.0,STARLINK-3923,PAYLOAD,2024-07-17 11:39:32,15.08848305,0.0001384,53.2161,233.544,87.5322,272.5829,8.8008e-05,1.113e-05,0.0,0 STARLINK-3923,1 52489U 22049AQ  24199.48579205  .00001113  00000-0  88008-4 0  9994,2 52489  53.2161 233.5440 0001384  87.5322 272.5829 15.08848305121643,6917.855,95.437,540.677,538.763,0.0
52489.0,STARLINK-3923,PAYLOAD,2024-07-18 11:30:19,15.08842387,0.0001493,53.2167,229.0793,98.2368,261.8793,3.1748e-06,-2.37e-06,0.0,0 STARLINK-3923,1 52489U 22049AQ  24200.47939763 -.00000237  00000-0  31748-5 0  9992,2 52489  53.2167 229.0793 0001493  98.2368 261.8793 15.08842387121959,6917.873,95.437,540.771,538.705,0.0
52489.0,STARLINK-3923,PAYLOAD,2024-07-19 08:10:20,15.08842235,0.0001258,53.2158,225.2141,97.2671,262.8465,7.4089e-05,8.92e-06,0.0,0 STARLINK-3923,1 52489U 22049AQ  24201.34051584  .00000892  00000-0  74089-4 0  9995,2 52489  53.2158 225.2141 0001258  97.2671 262.8465 15.08842235121925,6917.874,95.437,540.609,538.868,0.0
52489.0,STARLINK-3923,PAYLOAD,2024-07-20 04:50:21,15.08836846,0.0001478,53.2165,221.3487,101.1918,258.924,5.5034e-05,5.88e-06,0.0,0 STARLINK-3923,1 52489U 22049AQ  24202.20164036  .00000588  00000-0  55034-4 0  9999,2 52489  53.2165 221.3487 0001478 101.1918 258.9240 15.08836846122217,6917.89,95.438,540.777,538.733,0.0
52489.0,STARLINK-3923,PAYLOAD,2024-07-20 11:11:54,15.0883737,0.0001488,53.2164,220.1599,100.2016,259.9144,5.2925e-05,5.54e-06,0.0,0 STARLINK-3923,1 52489U 22049AQ  24202.46660098  .00000554  00000-0  52925-4 0  9995,2 52489  53.2164 220.1599 0001488 100.2016 259.9144 15.08837370122090,6917.888,95.438,540.783,538.724,0.0
52489.0,STARLINK-3923,PAYLOAD,2024-07-21 07:51:54,15.08843028,0.0001361,53.2157,216.2965,91.8538,268.261,7.8017e-05,9.54e-06,0.0,0 STARLINK-3923,1 52489U 22049AQ  24203.32771738  .00000954  00000-0  78017-4 0  9999,2 52489  53.2157 216.2965 0001361  91.8538 268.2610 15.08843028122389,6917.871,95.437,540.678,538.795,0.0
52489.0,STARLINK-3923,PAYLOAD,2024-07-22 04:31:56,15.08835816,0.000136,53.2156,212.4302,87.6252,272.4896,3.2903e-05,2.36e-06,0.0,0 STARLINK-3923,1 52489U 22049AQ  24204.18884468  .00000236  00000-0  32903-4 0  9996,2 52489  53.2156 212.4302 0001360  87.6252 272.4896 15.08835816122510,6917.893,95.438,540.699,538.817,0.0
52489.0,STARLINK-3923,PAYLOAD,2024-07-22 06:07:19,15.08836574,0.0001369,53.2156,212.1328,87.5571,272.5577,3.8439e-05,3.24e-06,0.0,0 STARLINK-3923,1 52489U 22049AQ  24204.25508411  .00000324  00000-0  38439-4 0  9993,2 52489  53.2156 212.1328 0001369  87.5571 272.5577 15.08836574122369,6917.891,95.438,540.703,538.809,0.0
52489.0,STARLINK-3923,PAYLOAD,2024-07-23 07:33:29,15.08840685,0.0001399,53.2158,207.3758,90.0119,270.1034,3.5843e-05,2.83e-06,0.0,0 STARLINK-3923,1 52489U 22049AQ  24205.31492345  .00000283  00000-0  35843-4 0  9999,2 52489  53.2158 207.3758 0001399  90.0119 270.1034 15.08840685122689,6917.878,95.438,540.711,538.775,0.0
52489.0,STARLINK-3923,PAYLOAD,2024-07-24 05:48:53,15.08835203,0.0001314,53.215,203.2123,90.4377,269.6765,4.6774e-05,4.57e-06,0.0,0 STARLINK-3923,1 52489U 22049AQ  24206.24228870  .00000457  00000-0  46774-4 0  9990,2 52489  53.2150 203.2123 0001314  90.4377 269.6765 15.08835203122829,6917.895,95.438,540.669,538.851,0.0
52489.0,STARLINK-3923,PAYLOAD,2024-07-24 08:59:39,15.08836772,0.0001383,53.2155,202.618,95.1613,264.9537,5.7683e-05,6.3e-06,0.0,0 STARLINK-3923,1 52489U 22049AQ  24206.37476769  .00000630  00000-0  57683-4 0  9990,2 52489  53.2155 202.6180 0001383  95.1613 264.9537 15.08836772122682,6917.89,95.438,540.712,538.799,0.0
52489.0,STARLINK-3923,PAYLOAD,2024-07-25 05:39:39,15.08839857,0.0001437,53.2156,198.7523,104.5328,255.5824,1.232e-05,-9.2e-07,0.0,0 STARLINK-3923,1 52489U 22049AQ  24207.23587139 -.00000092  00000-0  12320-4 0  9992,2 52489  53.2156 198.7523 0001437 104.5328 255.5824 15.08839857122971,6917.881,95.438,540.74,538.752,0.0
52489.0,STARLINK-3923,PAYLOAD,2024-07-25 08:50:25,15.08835873,0.0001441,53.2156,198.1576,95.9952,264.1204,-2.4328e-05,-6.75e-06,0.0,0 STARLINK-3923,1 52489U 22049AQ  24207.36835487 -.00000675  00000-0 -24328-4 0  9997,2 52489  53.2156 198.1576 0001441  95.9952 264.1204 15.08835873122831,6917.893,95.438,540.755,538.761,0.0
52489.0,STARLINK-3923,PAYLOAD,2024-07-26 05:30:27,15.08831816,0.0001649,53.2166,194.2874,86.5535,273.5646,-7.1051e-05,-1.418e-05,0.0,0 STARLINK-3923,1 52489U 22049AQ  24208.22948155 -.00001418  00000-0 -71051-4 0  9991,2 52489  53.2166 194.2874 0001649  86.5535 273.5646 15.08831816123123,6917.905,95.438,540.911,538.63,0.0
52489.0,STARLINK-3923,PAYLOAD,2024-07-26 16:38:09,15.08834534,0.0001543,53.2157,192.2075,93.5573,266.5595,-9.1871e-05,-1.75e-05,0.0,0 STARLINK-3923,1 52489U 22049AQ  24208.69316065 -.00001750  00000-0 -91871-4 0  9992,2 52489  53.2157 192.2075 0001543  93.5573 266.5595 15.08834534123032,6917.897,95.438,540.83,538.695,0.0
52489.0,STARLINK-3923,PAYLOAD,2024-07-27 05:21:14,15.08823553,0.0001547,53.2155,189.8287,99.2991,260.8176,6.9256e-05,8.14e-06,0.0,0 STARLINK-3923,1 52489U 22049AQ  24209.22307988  .00000814  00000-0  69256-4 0  9996,2 52489  53.2155 189.8287 0001547  99.2991 260.8176 15.08823553123118,6917.931,95.439,540.866,538.725,0.0
52489.0,STARLINK-3923,PAYLOAD,2024-07-28 05:12:02,15.08824494,0.0001441,53.2148,185.3706,92.4125,267.7032,8.8992e-05,1.128e-05,0.0,0 STARLINK-3923,1 52489U 22049AQ  24210.21669036  .00001128  00000-0  88992-4 0  9999,2 52489  53.2148 185.3706 0001441  92.4125 267.7032 15.08824494123420,6917.928,95.439,540.79,538.796,0.0
52489.0,STARLINK-3923,PAYLOAD,2024-07-28 22:41:16,15.08831877,0.0001359,53.2148,182.0996,91.0938,269.021,9.6628e-05,1.25e-05,0.0,0 STARLINK-3923,1 52489U 22049AQ  24210.94533103  .00001250  00000-0  96628-4 0  9995,2 52489  53.2148 182.0996 0001359  91.0938 269.0210 15.08831877123370,6917.905,95.438,540.71,538.83,0.0
